0 COSMOS 2251 DEB
1 35067U 93036AHW 13283.67768037  .00003148  00000-0  79882-3 0  4474
2 35067 073.7628 036.6171 0088269 069.4464 291.6468 14.48912842234644
0 COSMOS 2251 DEB
1 35067U 93036AHW 13285.67995345  .00003212  00000-0  81442-3 0  4488
2 35067 073.7612 032.7977 0088496 064.3234 296.7038 14.48927342234931
0 COSMOS 2251 DEB
1 35067U 93036AHW 13287.68221603  .00003242  00000-0  82173-3 0  4496
2 35067 073.7615 028.9834 0088543 060.2142 300.7956 14.48941249235229
0 COSMOS 2251 DEB
1 35067U 93036AHW 13289.89158343  .00003242  00000-0  82156-3 0  4504
2 35067 073.7616 024.7737 0088514 055.4561 305.4865 14.48955667235540
0 COSMOS 2251 DEB
1 35067U 93036AHW 13290.92721568  .00003363  00000-0  85156-3 0  4513
2 35067 073.7609 022.7966 0088619 053.7552 307.3166 14.48967207235695
0 COSMOS 2251 DEB
1 35067U 93036AHW 13292.92938827  .00003431  00000-0  86836-3 0  4526
2 35067 073.7585 018.9782 0088515 047.0488 313.8112 14.48982866235983
0 COSMOS 2251 DEB
1 35067U 93036AHW 13293.89595498  .00003478  00000-0  88012-3 0  4536
2 35067 073.7594 017.1362 0088478 045.3495 315.4942 14.48991140236126
0 COSMOS 2251 DEB
1 35067U 93036AHW 13295.89811417  .00003524  00000-0  89207-3 0  4540
2 35067 073.7585 013.3129 0087835 041.0900 319.6889 14.49006884236416
